{"type":"FeatureCollection","features":[{"type":"Feature","properties":{"route":"mo_co","name":"Monon Cooridor","color":"#ED1B24"},"geometry":{"type":"LineString","coordinates":[[-87.51792,41.52284],[-87.51862,41.6121],[-87.52006,41.61913],[-87.51912,41.62197],[-87.51892,41.63018],[-87.52464,41.63216],[-87.55897,41.65792],[-87.58943,41.65808],[-87.59296,41.65907],[-87.60924,41.67724],[-87.61227,41.68355],[-87.58713,41.79477],[-87.58684,41.79951],[-87.58918,41.80671],[-87.60849,41.83301],[-87.61352,41.84447],[-87.62264,41.87159],[-87.62318,41.88421]]}},{"type":"Feature","properties":{"route":"so_shore","name":"Lakeshore Corridor","color":"#F6931C"},"geometry":{"type":"LineString","coordinates":[[-86.31095,41.70076],[-86.29582,41.70333],[-86.29342,41.70168],[-86.2935,41.68536],[-86.30656,41.68453],[-86.30987,41.68344],[-86.38167,41.69289],[-86.49684,41.7061],[-86.51375,41.70962],[-86.53658,41.70937],[-86.57081,41.71308],[-86.58497,41.71662],[-86.80833,41.71841],[-86.84175,41.71149],[-86.86466,41.71326],[-86.89368,41.71298],[-86.90718,41.7091],[-86.92545,41.70592],[-86.93846,41.69426],[-86.99572,41.66867],[-87.06795,41.64243],[-87.1084,41.63],[-87.13161,41.61844],[-87.15556,41.6199],[-87.17165,41.61946],[-87.19834,41.61566],[-87.25522,41.60212],[-87.26363,41.59779],[-87.27211,41.59802],[-87.28823,41.59496],[-87.3425,41.60565],[-87.39813,41.60556],[-87.42637,41.60969],[-87.47689,41.61087],[-87.48801,41.6161],[-87.49008,41.61829],[-87.49231,41.62484],[-87.50035,41.63013],[-87.52415,41.63192],[-87.55897,41.65792],[-87.58943,41.65808],[-87.59296,41.65907],[-87.60996,41.67827],[-87.61227,41.68355],[-87.61223,41.68546],[-87.58713,41.79477],[-87.58684,41.79951],[-87.58918,41.80671],[-87.60849,41.83301],[-87.61352,41.84447],[-87.62264,41.87159],[-87.62318,41.88421]]}}]}